{"type": "FeatureCollection", "features": [ {"type": "Feature", "properties": {"norad_id": 28649, "name": "IRS-P5 (CARTOSAT-1)", "group": "resource", "lat": -41.07560016980894, "lon": 11.388062640111071, "alt_km": 603.4991548913977, "timestamp": "2025-12-03T22:42:32.313213+00:00", "meta": {"OBJECT_NAME": "IRS-P5 (CARTOSAT-1)", "OBJECT_ID": "2005-017A", "EPOCH": "2025-12-03T11:36:55.412352", "MEAN_MOTION": 14.90351653, "ECCENTRICITY": 0.0001769, "INCLINATION": 97.5501, "RA_OF_ASC_NODE": 4.3079, "ARG_OF_PERICENTER": 53.2464, "MEAN_ANOMALY": 306.8917, "EPHEMERIS_TYPE": 0, "CLASSIFICATION_TYPE": "U", "NORAD_CAT_ID": 28649, "ELEMENT_SET_NO": 999, "REV_AT_EPOCH": 11466, "BSTAR": 0.00030249, "MEAN_MOTION_DOT": 2.89e-05, "MEAN_MOTION_DDOT": 0}, "tle": {"line1": "1 28649U 05017A   25337.48397468  .00002890  00000+0  30249-3 0  9990", "line2": "2 28649  97.5501   4.3079 0001769  53.2464 306.8917 14.90351653114667"}}, "geometry": {"type": "Point", "coordinates": [11.388062640111071, -41.07560016980894]}}, {"type": "Feature", "properties": {"norad_id": 28893, "name": "SINAH 1", "group": "resource", "lat": 65.31745782609902, "lon": 88.05363726199518, "alt_km": 675.2795974420678, "timestamp": "2025-12-03T22:42:32.313223+00:00", "meta": {"OBJECT_NAME": "SINAH 1", "OBJECT_ID": "2005-043D", "EPOCH": "2025-12-03T10:55:20.476704", "MEAN_MOTION": 14.63945212, "ECCENTRICITY": 0.0014828, "INCLINATION": 98.26, "RA_OF_ASC_NODE": 105.9879, "ARG_OF_PERICENTER": 164.9029, "MEAN_ANOMALY": 195.2619, "EPHEMERIS_TYPE": 0, "CLASSIFICATION_TYPE": "U", "NORAD_CAT_ID": 28893, "ELEMENT_SET_NO": 999, "REV_AT_EPOCH": 7188, "BSTAR": 0.00016282, "MEAN_MOTION_DOT": 8.04e-06, "MEAN_MOTION_DDOT": 0}, "tle": {"line1": "1 28893U 05043D   25337.45509811  .00000804  00000+0  16282-3 0  9998", "line2": "2 28893  98.2600 105.9879 0014828 164.9029 195.2619 14.63945212 71884"}}, "geometry": {"type": "Point", "coordinates": [88.05363726199518, 65.31745782609902]}}, {"type": "Feature", "properties": {"norad_id": 29079, "name": "EROS B", "group": "resource", "lat": 72.09723311866699, "lon": 70.57485178023882, "alt_km": 368.29370665431725, "timestamp": "2025-12-03T22:42:32.313233+00:00", "meta": {"OBJECT_NAME": "EROS B", "OBJECT_ID": "2006-014A", "EPOCH": "2025-12-03T11:39:05.486688", "MEAN_MOTION": 15.64656334, "ECCENTRICITY": 0.0002171, "INCLINATION": 97.3489, "RA_OF_ASC_NODE": 93.6431, "ARG_OF_PERICENTER": 235.7623, "MEAN_ANOMALY": 124.3431, "EPHEMERIS_TYPE": 0, "CLASSIFICATION_TYPE": "U", "NORAD_CAT_ID": 29079, "ELEMENT_SET_NO": 999, "REV_AT_EPOCH": 8935, "BSTAR": 0.0017029, "MEAN_MOTION_DOT": 0.00167689, "MEAN_MOTION_DDOT": 0}, "tle": {"line1": "1 29079U 06014A   25337.48548017  .00167689  00000+0  17029-2 0  9992", "line2": "2 29079  97.3489  93.6431 0002171 235.7623 124.3431 15.64656334 89350"}}, "geometry": {"type": "Point", "coordinates": [70.57485178023882, 72.09723311866699]}}, {"type": "Feature", "properties": {"norad_id": 29228, "name": "RESURS-DK 1", "group": "resource", "lat": -63.028755070032986, "lon": -9.522356447737048, "alt_km": 531.1627798952868, "timestamp": "2025-12-03T22:42:32.313242+00:00", "meta": {"OBJECT_NAME": "RESURS-DK 1", "OBJECT_ID": "2006-021A", "EPOCH": "2025-12-03T12:04:24.593088", "MEAN_MOTION": 15.12074671, "ECCENTRICITY": 0.0007837, "INCLINATION": 69.9327, "RA_OF_ASC_NODE": 125.7053, "ARG_OF_PERICENTER": 265.3674, "MEAN_ANOMALY": 94.6597, "EPHEMERIS_TYPE": 0, "CLASSIFICATION_TYPE": "U", "NORAD_CAT_ID": 29228, "ELEMENT_SET_NO": 999, "REV_AT_EPOCH": 7298, "BSTAR": 0.00027747, "MEAN_MOTION_DOT": 4.683e-05, "MEAN_MOTION_DDOT": 0}, "tle": {"line1": "1 29228U 06021A   25337.50306242  .00004683  00000+0  27747-3 0  9994", "line2": "2 29228  69.9327 125.7053 0007837 265.3674  94.6597 15.12074671 72982"}}, "geometry": {"type": "Point", "coordinates": [-9.522356447737048, -63.028755070032986]}}, {"type": "Feature", "properties": {"norad_id": 29268, "name": "ARIRANG-2 (KOMPSAT-2)", "group": "resource", "lat": -43.81378826460561, "lon": 174.43067605690368, "alt_km": 676.3073845498866, "timestamp": "2025-12-03T22:42:32.313252+00:00", "meta": {"OBJECT_NAME": "ARIRANG-2 (KOMPSAT-2)", "OBJECT_ID": "2006-031A", "EPOCH": "2025-12-03T13:23:03.962400", "MEAN_MOTION": 14.64480342, "ECCENTRICITY": 0.0013993, "INCLINATION": 97.8264, "RA_OF_ASC_NODE": 166.4782, "ARG_OF_PERICENTER": 339.509, "MEAN_ANOMALY": 89.2019, "EPHEMERIS_TYPE": 0, "CLASSIFICATION_TYPE": "U", "NORAD_CAT_ID": 29268, "ELEMENT_SET_NO": 999, "REV_AT_EPOCH": 3284, "BSTAR": 0.00012693, "MEAN_MOTION_DOT": 6.28e-06, "MEAN_MOTION_DDOT": 0}, "tle": {"line1": "1 29268U 06031A   25337.55768475  .00000628  00000+0  12693-3 0  9993", "line2": "2 29268  97.8264 166.4782 0013993 339.5090  89.2019 14.64480342 32845"}}, "geometry": {"type": "Point", "coordinates": [174.43067605690368, -43.81378826460561]}}, {"type": "Feature", "properties": {"norad_id": 29709, "name": "LAPAN-TUBSAT", "group": "resource", "lat": -58.30041522910805, "lon": -18.702672350045425, "alt_km": 627.5471139083002, "timestamp": "2025-12-03T22:42:32.313262+00:00", "meta": {"OBJECT_NAME": "LAPAN-TUBSAT", "OBJECT_ID": "2007-001A", "EPOCH": "2025-12-03T11:39:38.299680", "MEAN_MOTION": 14.85647787, "ECCENTRICITY": 0.0013596, "INCLINATION": 98.1252, "RA_OF_ASC_NODE": 327.4525, "ARG_OF_PERICENTER": 101.5016, "MEAN_ANOMALY": 258.7726, "EPHEMERIS_TYPE": 0, "CLASSIFICATION_TYPE": "U", "NORAD_CAT_ID": 29709, "ELEMENT_SET_NO": 999, "REV_AT_EPOCH": 2209, "BSTAR": 0.0001286, "MEAN_MOTION_DOT": 1.058e-05, "MEAN_MOTION_DDOT": 0}, "tle": {"line1": "1 29709U 07001A   25337.48585995  .00001058  00000+0  12860-3 0  9991", "line2": "2 29709  98.1252 327.4525 0013596 101.5016 258.7726 14.85647787 22099"}}, "geometry": {"type": "Point", "coordinates": [-18.702672350045425, -58.30041522910805]}}, {"type": "Feature", "properties": {"norad_id": 31113, "name": "HAIYANG-1B", "group": "resource", "lat": 63.48110828337952, "lon": 159.66418748768848, "alt_km": 776.0099781514164, "timestamp": "2025-12-03T22:42:32.313271+00:00", "meta": {"OBJECT_NAME": "HAIYANG-1B", "OBJECT_ID": "2007-010A", "EPOCH": "2025-12-03T12:06:17.193024", "MEAN_MOTION": 14.30959975, "ECCENTRICITY": 0.0014589, "INCLINATION": 98.3307, "RA_OF_ASC_NODE": 322.1645, "ARG_OF_PERICENTER": 63.5351, "MEAN_ANOMALY": 296.7327, "EPHEMERIS_TYPE": 0, "CLASSIFICATION_TYPE": "U", "NORAD_CAT_ID": 31113, "ELEMENT_SET_NO": 999, "REV_AT_EPOCH": 97264, "BSTAR": 9.1823e-05, "MEAN_MOTION_DOT": 2e-06, "MEAN_MOTION_DDOT": 0}, "tle": {"line1": "1 31113U 07010A   25337.50436566  .00000200  00000+0  91823-4 0  9990", "line2": "2 31113  98.3307 322.1645 0014589  63.5351 296.7327 14.30959975972640"}}, "geometry": {"type": "Point", "coordinates": [159.66418748768848, 63.48110828337952]}}, {"type": "Feature", "properties": {"norad_id": 31598, "name": "COSMO-SKYMED 1", "group": "resource", "lat": -59.82930905304132, "lon": 177.07858446898723, "alt_km": 588.2379522101537, "timestamp": "2025-12-03T22:42:32.313281+00:00", "meta": {"OBJECT_NAME": "COSMO-SKYMED 1", "OBJECT_ID": "2007-023A", "EPOCH": "2025-12-03T11:44:27.272256", "MEAN_MOTION": 14.95656321, "ECCENTRICITY": 0.0001429, "INCLINATION": 97.8841, "RA_OF_ASC_NODE": 162.8283, "ARG_OF_PERICENTER": 80.989, "MEAN_ANOMALY": 279.1492, "EPHEMERIS_TYPE": 0, "CLASSIFICATION_TYPE": "U", "NORAD_CAT_ID": 31598, "ELEMENT_SET_NO": 999, "REV_AT_EPOCH": 52, "BSTAR": 0.0004747, "MEAN_MOTION_DOT": 5.22e-05, "MEAN_MOTION_DDOT": 0}, "tle": {"line1": "1 31598U 07023A   25337.48920454  .00005220  00000+0  47470-3 0  9997", "line2": "2 31598  97.8841 162.8283 0001429  80.9890 279.1492 14.95656321   528"}}, "geometry": {"type": "Point", "coordinates": [177.07858446898723, -59.82930905304132]}}, {"type": "Feature", "properties": {"norad_id": 31698, "name": "TERRASAR-X", "group": "resource", "lat": -64.38212114089245, "lon": -0.7190553174342591, "alt_km": 516.7313709352939, "timestamp": "2025-12-03T22:42:32.313290+00:00", "meta": {"OBJECT_NAME": "TERRASAR-X", "OBJECT_ID": "2007-026A", "EPOCH": "2025-12-02T13:47:56.806656", "MEAN_MOTION": 15.19154546, "ECCENTRICITY": 0.0001916, "INCLINATION": 97.4445, "RA_OF_ASC_NODE": 342.105, "ARG_OF_PERICENTER": 86.6664, "MEAN_ANOMALY": 273.4789, "EPHEMERIS_TYPE": 0, "CLASSIFICATION_TYPE": "U", "NORAD_CAT_ID": 31698, "ELEMENT_SET_NO": 999, "REV_AT_EPOCH": 2337, "BSTAR": 8.5350444e-05, "MEAN_MOTION_DOT": 1.726e-05, "MEAN_MOTION_DDOT": 0}, "tle": {"line1": "1 31698U 07026A   25336.57496304  .00001726  00000+0  85350-4 0  9999", "line2": "2 31698  97.4445 342.1050 0001916  86.6664 273.4789 15.19154546 23376"}}, "geometry": {"type": "Point", "coordinates": [-0.7190553174342591, -64.38212114089245]}}, {"type": "Feature", "properties": {"norad_id": 32060, "name": "WORLDVIEW-1 (WV-1)", "group": "resource", "lat": 54.77448090092188, "lon": -73.86436110313052, "alt_km": 486.84203030443405, "timestamp": "2025-12-03T22:42:32.313299+00:00", "meta": {"OBJECT_NAME": "WORLDVIEW-1 (WV-1)", "OBJECT_ID": "2007-041A", "EPOCH": "2025-12-03T07:59:12.124608", "MEAN_MOTION": 15.24439924, "ECCENTRICITY": 7.52e-05, "INCLINATION": 97.3839, "RA_OF_ASC_NODE": 94.948, "ARG_OF_PERICENTER": 93.3039, "MEAN_ANOMALY": 266.8285, "EPHEMERIS_TYPE": 0, "CLASSIFICATION_TYPE": "U", "NORAD_CAT_ID": 32060, "ELEMENT_SET_NO": 999, "REV_AT_EPOCH": 1304, "BSTAR": 0.00048185, "MEAN_MOTION_DOT": 0.00011762, "MEAN_MOTION_DDOT": 0}, "tle": {"line1": "1 32060U 07041A   25337.33277922  .00011762  00000+0  48185-3 0  9993", "line2": "2 32060  97.3839  94.9480 0000752  93.3039 266.8285 15.24439924 13045"}}, "geometry": {"type": "Point", "coordinates": [-73.86436110313052, 54.77448090092188]}}]}